NORAD_CAT_ID,OBJECT_NAME,OBJECT_TYPE,EPOCH,MEAN_MOTION,ECCENTRICITY,INCLINATION,RA_OF_ASC_NODE,ARG_OF_PERICENTER,MEAN_ANOMALY,BSTAR,MEAN_MOTION_DOT,MEAN_MOTION_DDOT,TLE_LINE0,TLE_LINE1,TLE_LINE2,SEMIMAJOR_AXIS,PERIOD,APOGEE,PERIGEE,DECAYED
53390.0,STARLINK-4517,PAYLOAD,2024-01-04 15:21:49,15.08852664,0.0001389,53.2165,93.2354,85.5541,274.561,8.3193e-05,1.037e-05,0.0,0 STARLINK-4517,1 53390U 22097C   24004.64015610  .00001037  00000-0  83193-4 0  9992,2 53390  53.2165  93.2354 0001389  85.5541 274.5610 15.08852664 78790,6917.842,95.437,540.668,538.746,0.0
53390.0,STARLINK-4517,PAYLOAD,2024-01-05 12:01:51,15.08844417,0.0001752,53.2173,89.3605,129.5694,230.5453,-5.3212e-05,-1.135e-05,0.0,0 STARLINK-4517,1 53390U 22097C   24005.50128485 -.00001135  00000-0 -53212-4 0  9993,2 53390  53.2173  89.3605 0001752 129.5694 230.5453 15.08844417 78127,6917.867,95.437,540.944,538.52,0.0
53390.0,STARLINK-4517,PAYLOAD,2024-01-05 15:12:37,15.08833789,0.0001537,53.2174,88.7701,120.9098,239.2045,2.7815e-05,1.55e-06,0.0,0 STARLINK-4517,1 53390U 22097C   24005.63376956  .00000155  00000-0  27815-4 0  9994,2 53390  53.2174  88.7701 0001537 120.9098 239.2045 15.08833789 78147,6917.899,95.438,540.828,538.701,0.0
53390.0,STARLINK-4517,PAYLOAD,2024-01-06 11:52:38,15.08841501,0.0001528,53.2182,84.9044,120.541,239.5733,3.7067e-05,3.02e-06,0.0,0 STARLINK-4517,1 53390U 22097C   24006.49488426  .00000302  00000-0  37067-4 0  9999,2 53390  53.2182  84.9044 0001528 120.5410 239.5733 15.08841501 78270,6917.876,95.437,540.798,538.684,0.0
53390.0,STARLINK-4517,PAYLOAD,2024-01-07 11:43:25,15.08836935,0.000135,53.2169,80.4475,102.7564,257.3579,5.1157e-05,5.26e-06,0.0,0 STARLINK-4517,1 53390U 22097C   24007.48848988  .00000526  00000-0  51157-4 0  9996,2 53390  53.2169  80.4475 0001350 102.7564 257.3579 15.08836935 78427,6917.89,95.438,540.689,538.821,0.0
53390.0,STARLINK-4517,PAYLOAD,2024-01-08 09:58:49,15.08837359,0.0001425,53.2173,76.2878,95.4216,264.6938,4.9774e-05,5.04e-06,0.0,0 STARLINK-4517,1 53390U 22097C   24008.41585353  .00000504  00000-0  49774-4 0  9992,2 53390  53.2173  76.2878 0001425  95.4216 264.6938 15.08837359 79362,6917.888,95.438,540.739,538.768,0.0
53390.0,STARLINK-4517,PAYLOAD,2024-01-09 11:25:00,15.08822604,0.0001546,53.2174,71.5278,84.2132,275.9037,0.00037581,5.695e-05,0.0,0 STARLINK-4517,1 53390U 22097C   24009.47569589  .00005695  00000-0  37581-3 0  9990,2 53390  53.2174  71.5278 0001546  84.2132 275.9037 15.08822604 78723,6917.934,95.439,540.868,538.729,0.0
53390.0,STARLINK-4517,PAYLOAD,2024-01-09 13:00:22,15.08855361,0.0001533,53.218,71.2304,101.5174,258.5991,1.4537e-06,-2.65e-06,0.0,0 STARLINK-4517,1 53390U 22097C   24009.54192506 -.00000265  00000-0  14537-5 0  9996,2 53390  53.2180  71.2304 0001533 101.5174 258.5991 15.08855361 79534,6917.833,95.437,540.759,538.638,0.0
53390.0,STARLINK-4517,PAYLOAD,2024-01-10 11:15:46,15.08842564,0.0001466,53.2179,67.0658,95.9179,264.198,7.4188e-05,8.93e-06,0.0,0 STARLINK-4517,1 53390U 22097C   24010.46929210  .00000893  00000-0  74188-4 0  9992,2 53390  53.2179  67.0658 0001466  95.9179 264.1980 15.08842564 78871,6917.873,95.437,540.752,538.723,0.0
53390.0,STARLINK-4517,PAYLOAD,2024-01-11 12:41:56,15.08856021,0.0002029,53.2197,62.3015,64.1444,295.9757,6.0026e-05,6.68e-06,0.0,0 STARLINK-4517,1 53390U 22097C   24011.52912541  .00000668  00000-0  60026-4 0  9995,2 53390  53.2197  62.3015 0002029  64.1444 295.9757 15.08856021 79839,6917.831,95.437,541.1,538.293,0.0
53390.0,STARLINK-4517,PAYLOAD,2024-01-12 03:00:25,15.08836508,0.0001609,53.2175,59.6361,67.8675,292.2488,2.6113e-06,-2.46e-06,0.0,0 STARLINK-4517,1 53390U 22097C   24012.12529873 -.00000246  00000-0  26113-5 0  9997,2 53390  53.2175  59.6361 0001609  67.8675 292.2488 15.08836508 79128,6917.891,95.438,540.869,538.643,0.0
53390.0,STARLINK-4517,PAYLOAD,2024-01-12 09:21:57,15.08841175,0.000174,53.2181,58.4432,102.167,257.9517,2.23e-05,6.7e-07,0.0,0 STARLINK-4517,1 53390U 22097C   24012.39025373  .00000067  00000-0  22300-4 0  9995,2 53390  53.2181  58.4432 0001740 102.1670 257.9517 15.08841175 79964,6917.877,95.437,540.946,538.538,0.0
53390.0,STARLINK-4517,PAYLOAD,2024-01-13 09:12:45,15.08844301,0.0001727,53.218,53.9855,89.1359,270.9831,-5.6004e-05,-1.179e-05,0.0,0 STARLINK-4517,1 53390U 22097C   24013.38385674 -.00001179  00000-0 -56004-4 0  9993,2 53390  53.2180  53.9855 0001727  89.1359 270.9831 15.08844301 79312,6917.867,95.437,540.927,538.538,0.0
53390.0,STARLINK-4517,PAYLOAD,2024-01-14 09:03:32,15.08839711,0.0001864,53.2181,49.5247,104.6987,255.4212,0.00010851,1.439e-05,0.0,0 STARLINK-4517,1 53390U 22097C   24014.37745614  .00001439  00000-0  10851-3 0  9993,2 53390  53.2181  49.5247 0001864 104.6987 255.4212 15.08839711 80267,6917.881,95.438,541.036,538.457,0.0
53390.0,STARLINK-4517,PAYLOAD,2024-01-15 12:05:05,15.0884459,0.0001825,53.2183,44.4631,108.8839,251.2351,0.00016868,2.398e-05,0.0,0 STARLINK-4517,1 53390U 22097C   24015.50353262  .00002398  00000-0  16868-3 0  9992,2 53390  53.2183  44.4631 0001825 108.8839 251.2351 15.08844590 79637,6917.866,95.437,540.994,538.469,0.0
53390.0,STARLINK-4517,PAYLOAD,2024-01-16 02:23:34,15.08837839,0.000156,53.2175,41.7815,99.7533,260.3635,-4.5651e-05,-1.014e-05,0.0,0 STARLINK-4517,1 53390U 22097C   24016.09970371 -.00001014  00000-0 -45651-4 0  9992,2 53390  53.2175  41.7815 0001560  99.7533 260.3635 15.08837839 79721,6917.887,95.438,540.831,538.673,0.0
53390.0,STARLINK-4517,PAYLOAD,2024-01-16 08:45:07,15.08836609,0.0001526,53.2177,40.5922,98.9485,261.168,-5.4114e-05,-1.149e-05,0.0,0 STARLINK-4517,1 53390U 22097C   24016.36466524 -.00001149  00000-0 -54114-4 0  9995,2 53390  53.2177  40.5922 0001526  98.9485 261.1680 15.08836609 80565,6917.891,95.438,540.811,538.7,0.0
53390.0,STARLINK-4517,PAYLOAD,2024-01-17 08:35:53,15.08847398,0.0001638,53.2179,36.1397,98.8447,261.2731,1.4252e-05,-6.1e-07,0.0,0 STARLINK-4517,1 53390U 22097C   24017.35826105 -.00000061  00000-0  14252-4 0  9990,2 53390  53.2179  36.1397 0001638  98.8447 261.2731 15.08847398 79917,6917.858,95.437,540.856,538.59,0.0
53390.0,STARLINK-4517,PAYLOAD,2024-01-18 10:02:04,15.08839714,0.0001848,53.219,31.3802,77.9068,282.2131,0.00018079,2.59e-05,0.0,0 STARLINK-4517,1 53390U 22097C   24018.41810634  .00002590  00000-0  18079-3 0  9996,2 53390  53.2190  31.3802 0001848  77.9068 282.2131 15.08839714 80077,6917.881,95.438,541.025,538.468,0.0
53390.0,STARLINK-4517,PAYLOAD,2024-01-19 09:52:51,15.08848894,0.0002059,53.219,26.9116,67.6738,292.4472,7.0004e-05,8.26e-06,0.0,0 STARLINK-4517,1 53390U 22097C   24019.41170339  .00000826  00000-0  70004-4 0  9995,2 53390  53.2190  26.9116 0002059  67.6738 292.4472 15.08848894 81026,6917.853,95.437,541.143,538.294,0.0
53390.0,STARLINK-4517,PAYLOAD,2024-01-20 00:11:19,15.08850293,0.0002349,53.2199,24.2386,127.3249,232.7957,-5.5019e-05,-1.164e-05,0.0,0 STARLINK-4517,1 53390U 22097C   24020.00786349 -.00001164  00000-0 -55019-4 0  9993,2 53390  53.2199  24.2386 0002349 127.3249 232.7957 15.08850293 80310,6917.849,95.437,541.339,538.089,0.0
53390.0,STARLINK-4517,PAYLOAD,2024-01-20 06:32:51,15.08857906,0.0001596,53.2189,23.0539,110.8528,249.2635,-1.2836e-05,-4.92e-06,0.0,0 STARLINK-4517,1 53390U 22097C   24020.27281719 -.00000492  00000-0 -12836-4 0  9996,2 53390  53.2189  23.0539 0001596 110.8528 249.2635 15.08857906 81153,6917.826,95.436,540.795,538.587,0.0
53390.0,STARLINK-4517,PAYLOAD,2024-01-21 03:12:53,15.08842281,0.0001536,53.2173,19.1922,100.4355,259.681,-2.6739e-05,-7.14e-06,0.0,0 STARLINK-4517,1 53390U 22097C   24021.13394796 -.00000714  00000-0 -26739-4 0  9996,2 53390  53.2173  19.1922 0001536 100.4355 259.6810 15.08842281 80480,6917.873,95.437,540.801,538.676,0.0
53390.0,STARLINK-4517,PAYLOAD,2024-01-21 04:48:16,15.08844614,0.0001502,53.2173,18.8949,103.8511,256.2649,-2.8789e-05,-7.46e-06,0.0,0 STARLINK-4517,1 53390U 22097C   24021.20018676 -.00000746  00000-0 -28789-4 0  9996,2 53390  53.2173  18.8949 0001502 103.8511 256.2649 15.08844614 81294,6917.866,95.437,540.77,538.692,0.0
53390.0,STARLINK-4517,PAYLOAD,2024-01-22 04:39:03,15.08843412,0.0001402,53.2177,14.4341,83.1825,276.9326,4.8863e-05,4.9e-06,0.0,0 STARLINK-4517,1 53390U 22097C   24022.19378627  .00000490  00000-0  48863-4 0  9999,2 53390  53.2177  14.4341 0001402  83.1825 276.9326 15.08843412 80647,6917.87,95.437,540.705,538.765,0.0
53390.0,STARLINK-4517,PAYLOAD,2024-01-23 02:54:27,15.0883734,0.0001374,53.2178,10.2711,85.36,274.7549,6.8883e-05,8.08e-06,0.0,0 STARLINK-4517,1 53390U 22097C   24023.12115049  .00000808  00000-0  68883-4 0  9997,2 53390  53.2178  10.2711 0001374  85.3600 274.7549 15.08837340 80787,6917.889,95.438,540.704,538.803,0.0
53390.0,STARLINK-4517,PAYLOAD,2024-01-23 06:05:13,15.08841524,0.0001404,53.2175,9.6758,93.2341,266.8812,0.00011249,1.503e-05,0.0,0 STARLINK-4517,1 53390U 22097C   24023.25362725  .00001503  00000-0  11249-3 0  9992,2 53390  53.2175   9.6758 0001404  93.2341 266.8812 15.08841524 81607,6917.876,95.437,540.712,538.769,0.0
53390.0,STARLINK-4517,PAYLOAD,2024-01-24 04:20:37,15.08840285,0.000142,53.2171,5.5055,95.9422,264.1732,8.0264e-05,9.9e-06,0.0,0 STARLINK-4517,1 53390U 22097C   24024.18098965  .00000990  00000-0  80264-4 0  9990,2 53390  53.2171   5.5055 0001420  95.9422 264.1732 15.08840285 80946,6917.88,95.438,540.727,538.762,0.0
53390.0,STARLINK-4517,PAYLOAD,2024-01-25 04:11:26,15.0877189,0.0001814,53.2179,1.052,103.9429,256.1765,0.0010672,0.00016706,0.0,0 STARLINK-4517,1 53390U 22097C   24025.17461072  .00016706  00000-0  10672-2 0  9999,2 53390  53.2179   1.0520 0001814 103.9429 256.1765 15.08771890 81095,6918.089,95.442,541.209,538.699,0.0
53390.0,STARLINK-4517,PAYLOAD,2024-01-25 05:46:48,15.08830934,0.0001478,53.2185,0.7526,94.9549,265.1611,0.00027612,4.108e-05,0.0,0 STARLINK-4517,1 53390U 22097C   24025.24083385  .00004108  00000-0  27612-3 0  9990,2 53390  53.2185   0.7526 0001478  94.9549 265.1611 15.08830934 81109,6917.908,95.438,540.796,538.751,0.0
